start=new Date('2022-10-11T00:00:00.000Z').valueOf();
sats=[{"EPOCH":"2022-10-10T22:00:01.999584","ECCENTRICITY":"0.00022700","RA_OF_ASC_NODE":"316.6105","REV_AT_EPOCH":"130","CENTER_NAME":"EARTH","MEAN_ELEMENT_THEORY":"SGP4","PERIOD":"95.437","COUNTRY_CODE":"US","RCS_SIZE":"LARGE","ELEMENT_SET_NO":"999","EPHEMERIS_TYPE":"0","MEAN_MOTION":"15.08850930","INCLINATION":"53.2173","MEAN_MOTION_DDOT":"0.0000000000000","TLE_LINE1":"1 53390U 22097C   22283.91668981 -.00020593  00000-0 -12790-2 0  9997","ARG_OF_PERICENTER":"31.3973","MEAN_MOTION_DOT":"-0.00020593","OBJECT_TYPE":"PAYLOAD","PERIAPSIS":"538.142","LAUNCH_DATE":"2022-08-10","REF_FRAME":"TEME","OBJECT_ID":"2022-097C","GP_ID":"214720989","APOAPSIS":"541.282","CLASSIFICATION_TYPE":"U","BSTAR":"-0.00127900000000","NORAD_CAT_ID":"53390","SITE":"AFETR","TLE_LINE2":"2 53390  53.2173 316.6105 0002270  31.3973 187.2879 15.08850930  1307","OBJECT_NAME":"STARLINK-4517","DECAY_DATE":null,"MEAN_ANOMALY":"187.2879","FILE":"3601747","SEMIMAJOR_AXIS":"6917.847","TIME_SYSTEM":"UTC"},{"MEAN_ELEMENT_THEORY":"SGP4","CENTER_NAME":"EARTH","RA_OF_ASC_NODE":"316.6130","REV_AT_EPOCH":"130","ECCENTRICITY":"0.00017790","EPOCH":"2022-10-10T22:00:01.999584","TLE_LINE1":"1 53391U 22097D   22283.91668981 -.00184965  00000-0 -11892-1 0  9993","EPHEMERIS_TYPE":"0","MEAN_MOTION":"15.08885923","MEAN_MOTION_DDOT":"0.0000000000000","INCLINATION":"53.2173","RCS_SIZE":"LARGE","ELEMENT_SET_NO":"999","COUNTRY_CODE":"US","PERIOD":"95.435","CLASSIFICATION_TYPE":"U","BSTAR":"-0.01189200000000","APOAPSIS":"540.836","REF_FRAME":"TEME","OBJECT_ID":"2022-097D","GP_ID":"214720589","OBJECT_TYPE":"PAYLOAD","PERIAPSIS":"538.374","LAUNCH_DATE":"2022-08-10","MEAN_MOTION_DOT":"-0.00184965","ARG_OF_PERICENTER":"30.2773","SEMIMAJOR_AXIS":"6917.740","TIME_SYSTEM":"UTC","FILE":"3601747","MEAN_ANOMALY":"228.4805","DECAY_DATE":null,"OBJECT_NAME":"STARLINK-4521","TLE_LINE2":"2 53391  53.2173 316.6130 0001779  30.2773 228.4805 15.08885923  1302","SITE":"AFETR","NORAD_CAT_ID":"53391"},{"MEAN_ELEMENT_THEORY":"SGP4","EPOCH":"2022-10-10T22:00:01.999584","ECCENTRICITY":"0.00019130","REV_AT_EPOCH":"130","RA_OF_ASC_NODE":"316.6119","CENTER_NAME":"EARTH","TLE_LINE1":"1 53392U 22097E   22283.91668981 -.00094698  00000-0 -60064-2 0  9993","PERIOD":"95.436","COUNTRY_CODE":"US","ELEMENT_SET_NO":"999","RCS_SIZE":"LARGE","MEAN_MOTION_DDOT":"0.0000000000000","INCLINATION":"53.2173","MEAN_MOTION":"15.08867039","EPHEMERIS_TYPE":"0","OBJECT_ID":"2022-097E","GP_ID":"214720280","REF_FRAME":"TEME","APOAPSIS":"540.986","BSTAR":"-0.00600640000000","CLASSIFICATION_TYPE":"U","ARG_OF_PERICENTER":"30.1314","MEAN_MOTION_DOT":"-0.00094698","LAUNCH_DATE":"2022-08-10","PERIAPSIS":"538.339","OBJECT_TYPE":"PAYLOAD","DECAY_DATE":null,"MEAN_ANOMALY":"268.5852","FILE":"3601747","SEMIMAJOR_AXIS":"6917.798","TIME_SYSTEM":"UTC","NORAD_CAT_ID":"53392","SITE":"AFETR","OBJECT_NAME":"STARLINK-4535","TLE_LINE2":"2 53392  53.2173 316.6119 0001913  30.1314 268.5852 15.08867039  1305"},{"MEAN_ELEMENT_THEORY":"SGP4","REV_AT_EPOCH":"130","RA_OF_ASC_NODE":"316.6114","CENTER_NAME":"EARTH","EPOCH":"2022-10-10T22:00:01.999584","ECCENTRICITY":"0.00023630","TLE_LINE1":"1 53393U 22097F   22283.91668981 -.00114093  00000-0 -72616-2 0  9992","ELEMENT_SET_NO":"999","RCS_SIZE":"LARGE","MEAN_MOTION_DDOT":"0.0000000000000","INCLINATION":"53.2171","EPHEMERIS_TYPE":"0","MEAN_MOTION":"15.08857426","PERIOD":"95.436","COUNTRY_CODE":"US","BSTAR":"-0.00726160000000","CLASSIFICATION_TYPE":"U","GP_ID":"214720026","OBJECT_ID":"2022-097F","REF_FRAME":"TEME","APOAPSIS":"541.327","MEAN_MOTION_DOT":"-0.00114093","LAUNCH_DATE":"2022-08-10","PERIAPSIS":"538.057","OBJECT_TYPE":"PAYLOAD","ARG_OF_PERICENTER":"31.8709","SEMIMAJOR_AXIS":"6917.827","TIME_SYSTEM":"UTC","DECAY_DATE":null,"MEAN_ANOMALY":"246.8778","FILE":"3601747","TLE_LINE2":"2 53393  53.2171 316.6114 0002363  31.8709 246.8778 15.08857426  1300","OBJECT_NAME":"STARLINK-4530","SITE":"AFETR","NORAD_CAT_ID":"53393"},{"SITE":"AFETR","NORAD_CAT_ID":"53394","TLE_LINE2":"2 53394  53.2174 306.5923 0001583  39.5026 339.4441 15.20613548  1305","OBJECT_NAME":"STARLINK-4544","FILE":"3601747","DECAY_DATE":null,"MEAN_ANOMALY":"339.4441","TIME_SYSTEM":"UTC","SEMIMAJOR_AXIS":"6882.126","ARG_OF_PERICENTER":"39.5026","LAUNCH_DATE":"2022-08-10","PERIAPSIS":"502.901","OBJECT_TYPE":"PAYLOAD","MEAN_MOTION_DOT":"-0.01060032","APOAPSIS":"505.080","OBJECT_ID":"2022-097G","GP_ID":"214720752","REF_FRAME":"TEME","BSTAR":"-0.05213800000000","CLASSIFICATION_TYPE":"U","COUNTRY_CODE":"US","PERIOD":"94.699","INCLINATION":"53.2174","MEAN_MOTION_DDOT":"0.0000000000000","MEAN_MOTION":"15.20613548","EPHEMERIS_TYPE":"0","ELEMENT_SET_NO":"999","RCS_SIZE":"LARGE","TLE_LINE1":"1 53394U 22097G   22283.91668981 -.01060032  00000-0 -52138-1 0  9993","ECCENTRICITY":"0.00015830","EPOCH":"2022-10-10T22:00:01.999584","CENTER_NAME":"EARTH","REV_AT_EPOCH":"130","RA_OF_ASC_NODE":"306.5923","MEAN_ELEMENT_THEORY":"SGP4"},{"SITE":"AFETR","NORAD_CAT_ID":"53395","TLE_LINE2":"2 53395  53.2175 316.6115 0002025  30.9633 287.7878 15.08862454  1300","OBJECT_NAME":"STARLINK-4534","DECAY_DATE":null,"MEAN_ANOMALY":"287.7878","FILE":"3601747","SEMIMAJOR_AXIS":"6917.812","TIME_SYSTEM":"UTC","ARG_OF_PERICENTER":"30.9633","MEAN_MOTION_DOT":"-0.00126178","OBJECT_TYPE":"PAYLOAD","LAUNCH_DATE":"2022-08-10","PERIAPSIS":"538.276","REF_FRAME":"TEME","OBJECT_ID":"2022-097H","GP_ID":"214720826","APOAPSIS":"541.078","CLASSIFICATION_TYPE":"U","BSTAR":"-0.00804540000000","PERIOD":"95.436","COUNTRY_CODE":"US","RCS_SIZE":"LARGE","ELEMENT_SET_NO":"999","EPHEMERIS_TYPE":"0","MEAN_MOTION":"15.08862454","MEAN_MOTION_DDOT":"0.0000000000000","INCLINATION":"53.2175","TLE_LINE1":"1 53395U 22097H   22283.91668981 -.00126178  00000-0 -80454-2 0  9990","EPOCH":"2022-10-10T22:00:01.999584","ECCENTRICITY":"0.00020250","RA_OF_ASC_NODE":"316.6115","REV_AT_EPOCH":"130","CENTER_NAME":"EARTH","MEAN_ELEMENT_THEORY":"SGP4"},{"BSTAR":"-0.01206200000000","CLASSIFICATION_TYPE":"U","APOAPSIS":"541.162","GP_ID":"214719863","OBJECT_ID":"2022-097J","REF_FRAME":"TEME","LAUNCH_DATE":"2022-08-10","PERIAPSIS":"538.099","OBJECT_TYPE":"PAYLOAD","MEAN_MOTION_DOT":"-0.00187504","ARG_OF_PERICENTER":"28.9081","TIME_SYSTEM":"UTC","SEMIMAJOR_AXIS":"6917.765","FILE":"3601747","DECAY_DATE":null,"MEAN_ANOMALY":"9.8711","TLE_LINE2":"2 53396  53.2178 316.6044 0002214  28.9081   9.8711 15.08877607  1304","OBJECT_NAME":"STARLINK-4524","NORAD_CAT_ID":"53396","SITE":"AFETR","MEAN_ELEMENT_THEORY":"SGP4","CENTER_NAME":"EARTH","REV_AT_EPOCH":"130","RA_OF_ASC_NODE":"316.6044","ECCENTRICITY":"0.00022140","EPOCH":"2022-10-10T22:00:01.999584","TLE_LINE1":"1 53396U 22097J   22283.91668981 -.00187504  00000-0 -12062-1 0  9990","MEAN_MOTION_DDOT":"0.0000000000000","INCLINATION":"53.2178","MEAN_MOTION":"15.08877607","EPHEMERIS_TYPE":"0","ELEMENT_SET_NO":"999","RCS_SIZE":"LARGE","COUNTRY_CODE":"US","PERIOD":"95.435"},{"ARG_OF_PERICENTER":"36.6271","OBJECT_TYPE":"PAYLOAD","LAUNCH_DATE":"2022-08-10","PERIAPSIS":"538.344","MEAN_MOTION_DOT":"-0.00105618","APOAPSIS":"541.022","REF_FRAME":"TEME","GP_ID":"214720445","OBJECT_ID":"2022-097K","CLASSIFICATION_TYPE":"U","BSTAR":"-0.00671260000000","NORAD_CAT_ID":"53397","SITE":"AFETR","OBJECT_NAME":"STARLINK-4515","TLE_LINE2":"2 53397  53.2176 316.6116 0001936  36.6271 302.1094 15.08860384  1307","FILE":"3601747","DECAY_DATE":null,"MEAN_ANOMALY":"302.1094","TIME_SYSTEM":"UTC","SEMIMAJOR_AXIS":"6917.818","ECCENTRICITY":"0.00019360","EPOCH":"2022-10-10T22:00:01.999584","CENTER_NAME":"EARTH","RA_OF_ASC_NODE":"316.6116","REV_AT_EPOCH":"130","MEAN_ELEMENT_THEORY":"SGP4","COUNTRY_CODE":"US","PERIOD":"95.436","MEAN_MOTION":"15.08860384","EPHEMERIS_TYPE":"0","INCLINATION":"53.2176","MEAN_MOTION_DDOT":"0.0000000000000","RCS_SIZE":"LARGE","ELEMENT_SET_NO":"999","TLE_LINE1":"1 53397U 22097K   22283.91668981 -.00105618  00000-0 -67126-2 0  9999"},{"OBJECT_TYPE":"PAYLOAD","LAUNCH_DATE":"2022-08-10","PERIAPSIS":"538.452","MEAN_MOTION_DOT":"-0.00128651","ARG_OF_PERICENTER":"39.2030","CLASSIFICATION_TYPE":"U","BSTAR":"-0.00820530000000","APOAPSIS":"540.871","REF_FRAME":"TEME","OBJECT_ID":"2022-097L","GP_ID":"214720990","TLE_LINE2":"2 53398  53.2170 316.6028 0001748  39.2030  39.5456 15.08867519  1307","OBJECT_NAME":"STARLINK-4512","NORAD_CAT_ID":"53398","SITE":"AFETR","TIME_SYSTEM":"UTC","SEMIMAJOR_AXIS":"6917.796","FILE":"3601747","DECAY_DATE":null,"MEAN_ANOMALY":"39.5456","CENTER_NAME":"EARTH","RA_OF_ASC_NODE":"316.6028","REV_AT_EPOCH":"130","ECCENTRICITY":"0.00017480","EPOCH":"2022-10-10T22:00:01.999584","MEAN_ELEMENT_THEORY":"SGP4","EPHEMERIS_TYPE":"0","MEAN_MOTION":"15.08867519","MEAN_MOTION_DDOT":"0.0000000000000","INCLINATION":"53.2170","RCS_SIZE":"LARGE","ELEMENT_SET_NO":"999","COUNTRY_CODE":"US","PERIOD":"95.436","TLE_LINE1":"1 53398U 22097L   22283.91668981 -.00128651  00000-0 -82053-2 0  9998"},{"MEAN_ELEMENT_THEORY":"SGP4","ECCENTRICITY":"0.00018840","EPOCH":"2022-10-10T22:00:01.999584","CENTER_NAME":"EARTH","RA_OF_ASC_NODE":"316.6067","REV_AT_EPOCH":"130","TLE_LINE1":"1 53399U 22097M   22283.91668981  .00014851  00000-0  95112-3 0  9994","COUNTRY_CODE":"US","PERIOD":"95.442","MEAN_MOTION":"15.08766744","EPHEMERIS_TYPE":"0","MEAN_MOTION_DDOT":"0.0000000000000","INCLINATION":"53.2177","RCS_SIZE":"LARGE","ELEMENT_SET_NO":"999","APOAPSIS":"541.273","REF_FRAME":"TEME","OBJECT_ID":"2022-097M","GP_ID":"214720590","CLASSIFICATION_TYPE":"U","BSTAR":"0.00095112000000","ARG_OF_PERICENTER":"48.5281","OBJECT_TYPE":"PAYLOAD","PERIAPSIS":"538.666","LAUNCH_DATE":"2022-08-10","MEAN_MOTION_DOT":"0.00014851","FILE":"3601747","DECAY_DATE":null,"MEAN_ANOMALY":"330.2633","SEMIMAJOR_AXIS":"6918.104","TIME_SYSTEM":"UTC","SITE":"AFETR","NORAD_CAT_ID":"53399","TLE_LINE2":"2 53399  53.2177 316.6067 0001884  48.5281 330.2633 15.08766744  1306","OBJECT_NAME":"STARLINK-4528"}];
